HIMAWARI-8              
1 40267U 14060A   24114.64498267 -.00000262  00000+0  00000+0 0  9997
2 40267   0.0388 139.3942 0001004 256.2562 189.3824  1.00274017 34895
